IDEFIX & ARIANE 42P R/B 
1 27422U 02021B   26027.80203707  .00000557  00000+0  22835-3 0  9995
2 27422  98.5831 326.9078 0011054 312.2944  47.7301 14.30994093238179
AQUA                    
1 27424U 02022A   26027.96263068  .00001625  00000+0  33481-3 0  9997
2 27424  98.4102 354.6095 0001839  63.4368   7.7786 14.61867353262782
CZ-4B R/B               
1 27432U 02024C   26027.12647644  .00000096  00000+0  71972-4 0  9991
2 27432  98.8929  80.7246 0050848 140.2881 275.0283 14.14539470223362
MIDORI II (ADEOS-II)    
1 27597U 02056A   26027.78045032  .00000592  00000+0  25074-3 0  9995
2 27597  98.7700 345.9949 0002019 100.5485 259.5924 14.29250932204459
H-2A R/B                
1 27601U 02056E   26027.87450388  .00000565  00000+0  21301-3 0  9994
2 27601  98.3130 349.8128 0069082 283.5922 101.1978 14.33727791208262
CZ-4B R/B               
1 28059U 03049C   26027.94758814  .00000773  00000+0  18881-3 0  9998
2 28059  98.6833  21.2694 0048197 357.4812   2.6134 14.54969903180674
CZ-2C R/B               
1 28222U 04012C   26027.93254400  .00055281  00000+0  68098-3 0  9991
2 28222  97.7339  89.4946 0016877 100.9193 259.3963 15.59876636197918
SL-16 R/B               
1 28353U 04021B   26027.79720081 -.00000206  00000+0 -82680-4 0  9996
2 28353  71.0023 318.3105 0002642 112.6561 247.4841 14.14591075117054
CZ-4B R/B               
1 28415U 04035C   26027.53955808  .00010737  00000+0  38560-3 0  9994
2 28415  97.3567  62.2878 0034283 113.6152 246.8694 15.28272790173622
CZ-2C R/B               
1 28480U 04046B   26027.39586017  .00000351  00000+0  14638-3 0  9995
2 28480  98.1999 304.9427 0138224 277.1269  81.4214 14.26975192102618
ARIANE 5 R/B            
1 28499U 04049H   26027.87350699  .00001748  00000+0  19821-3 0  9996
2 28499  98.2561 194.8222 0085303 122.9420 238.0033 14.85169169139734
CZ-2D R/B               
1 28738U 05024B   26027.48307968  .00045385  00000+0  63825-3 0  9992
2 28738  97.3629  41.2338 0006124 148.1068 212.0559 15.56532901133365
