CCSDS_OMM_VERS = 2.0
CREATION_DATE  = 
ORIGINATOR     = 

OBJECT_NAME    = IDEFIX & ARIANE 42P R/B
OBJECT_ID      = 2002-021B
CENTER_NAME    = EARTH
REF_FRAME      = TEME
TIME_SYSTEM    = UTC
MEAN_ELEMENT_THEORY = SGP/SGP4

EPOCH          = 2026-01-27T19:14:56.002848
MEAN_MOTION    = 14.30994093
ECCENTRICITY   = .00110548
INCLINATION    = 98.5831
RA_OF_ASC_NODE = 326.9078
ARG_OF_PERICENTER = 312.2944
MEAN_ANOMALY   = 47.7301

EPHEMERIS_TYPE = 0
CLASSIFICATION_TYPE = U
NORAD_CAT_ID   = 27422
ELEMENT_SET_NO = 999
REV_AT_EPOCH   = 23817
BSTAR          = .22835173E-3
MEAN_MOTION_DOT = .557E-5
MEAN_MOTION_DDOT = 0

CCSDS_OMM_VERS = 2.0
CREATION_DATE  = 
ORIGINATOR     = 

OBJECT_NAME    = AQUA
OBJECT_ID      = 2002-022A
CENTER_NAME    = EARTH
REF_FRAME      = TEME
TIME_SYSTEM    = UTC
MEAN_ELEMENT_THEORY = SGP/SGP4

EPOCH          = 2026-01-27T23:06:11.290752
MEAN_MOTION    = 14.61867353
ECCENTRICITY   = .0001839
INCLINATION    = 98.4102
RA_OF_ASC_NODE = 354.6095
ARG_OF_PERICENTER = 63.4368
MEAN_ANOMALY   = 7.7786

EPHEMERIS_TYPE = 0
CLASSIFICATION_TYPE = U
NORAD_CAT_ID   = 27424
ELEMENT_SET_NO = 999
REV_AT_EPOCH   = 26278
BSTAR          = .33481321E-3
MEAN_MOTION_DOT = .1625E-4
MEAN_MOTION_DDOT = 0

CCSDS_OMM_VERS = 2.0
CREATION_DATE  = 
ORIGINATOR     = 

OBJECT_NAME    = CZ-4B R/B
OBJECT_ID      = 2002-024C
CENTER_NAME    = EARTH
REF_FRAME      = TEME
TIME_SYSTEM    = UTC
MEAN_ELEMENT_THEORY = SGP/SGP4

EPOCH          = 2026-01-27T03:02:07.564416
MEAN_MOTION    = 14.14539470
ECCENTRICITY   = .00508489
INCLINATION    = 98.8929
RA_OF_ASC_NODE = 80.7246
ARG_OF_PERICENTER = 140.2881
MEAN_ANOMALY   = 275.0283

EPHEMERIS_TYPE = 0
CLASSIFICATION_TYPE = U
NORAD_CAT_ID   = 27432
ELEMENT_SET_NO = 999
REV_AT_EPOCH   = 22336
BSTAR          = .71971521E-4
MEAN_MOTION_DOT = .96E-6
MEAN_MOTION_DDOT = 0

CCSDS_OMM_VERS = 2.0
CREATION_DATE  = 
ORIGINATOR     = 

OBJECT_NAME    = MIDORI II (ADEOS-II)
OBJECT_ID      = 2002-056A
CENTER_NAME    = EARTH
REF_FRAME      = TEME
TIME_SYSTEM    = UTC
MEAN_ELEMENT_THEORY = SGP/SGP4

EPOCH          = 2026-01-27T18:43:50.907648
MEAN_MOTION    = 14.29250932
ECCENTRICITY   = .00020197
INCLINATION    = 98.7700
RA_OF_ASC_NODE = 345.9949
ARG_OF_PERICENTER = 100.5485
MEAN_ANOMALY   = 259.5924

EPHEMERIS_TYPE = 0
CLASSIFICATION_TYPE = U
NORAD_CAT_ID   = 27597
ELEMENT_SET_NO = 999
REV_AT_EPOCH   = 20445
BSTAR          = .2507433E-3
MEAN_MOTION_DOT = .592E-5
MEAN_MOTION_DDOT = 0

CCSDS_OMM_VERS = 2.0
CREATION_DATE  = 
ORIGINATOR     = 

OBJECT_NAME    = H-2A R/B
OBJECT_ID      = 2002-056E
CENTER_NAME    = EARTH
REF_FRAME      = TEME
TIME_SYSTEM    = UTC
MEAN_ELEMENT_THEORY = SGP/SGP4

EPOCH          = 2026-01-27T20:59:17.135232
MEAN_MOTION    = 14.33727791
ECCENTRICITY   = .00690822
INCLINATION    = 98.3130
RA_OF_ASC_NODE = 349.8128
ARG_OF_PERICENTER = 283.5922
MEAN_ANOMALY   = 101.1978

EPHEMERIS_TYPE = 0
CLASSIFICATION_TYPE = U
NORAD_CAT_ID   = 27601
ELEMENT_SET_NO = 999
REV_AT_EPOCH   = 20826
BSTAR          = .213013E-3
MEAN_MOTION_DOT = .565E-5
MEAN_MOTION_DDOT = 0

CCSDS_OMM_VERS = 2.0
CREATION_DATE  = 
ORIGINATOR     = 

OBJECT_NAME    = CZ-4B R/B
OBJECT_ID      = 2003-049C
CENTER_NAME    = EARTH
REF_FRAME      = TEME
TIME_SYSTEM    = UTC
MEAN_ELEMENT_THEORY = SGP/SGP4

EPOCH          = 2026-01-27T22:44:31.615296
MEAN_MOTION    = 14.54969903
ECCENTRICITY   = .00481976
INCLINATION    = 98.6833
RA_OF_ASC_NODE = 21.2694
ARG_OF_PERICENTER = 357.4812
MEAN_ANOMALY   = 2.6134

EPHEMERIS_TYPE = 0
CLASSIFICATION_TYPE = U
NORAD_CAT_ID   = 28059
ELEMENT_SET_NO = 999
REV_AT_EPOCH   = 18067
BSTAR          = .18880864E-3
MEAN_MOTION_DOT = .773E-5
MEAN_MOTION_DDOT = 0

CCSDS_OMM_VERS = 2.0
CREATION_DATE  = 
ORIGINATOR     = 

OBJECT_NAME    = CZ-2C R/B
OBJECT_ID      = 2004-012C
CENTER_NAME    = EARTH
REF_FRAME      = TEME
TIME_SYSTEM    = UTC
MEAN_ELEMENT_THEORY = SGP/SGP4

EPOCH          = 2026-01-27T22:22:51.801600
MEAN_MOTION    = 15.59876636
ECCENTRICITY   = .00168778
INCLINATION    = 97.7339
RA_OF_ASC_NODE = 89.4946
ARG_OF_PERICENTER = 100.9193
MEAN_ANOMALY   = 259.3963

EPHEMERIS_TYPE = 0
CLASSIFICATION_TYPE = U
NORAD_CAT_ID   = 28222
ELEMENT_SET_NO = 999
REV_AT_EPOCH   = 19791
BSTAR          = .68098044E-3
MEAN_MOTION_DOT = .55281E-3
MEAN_MOTION_DDOT = 0

CCSDS_OMM_VERS = 2.0
CREATION_DATE  = 
ORIGINATOR     = 

OBJECT_NAME    = SL-16 R/B
OBJECT_ID      = 2004-021B
CENTER_NAME    = EARTH
REF_FRAME      = TEME
TIME_SYSTEM    = UTC
MEAN_ELEMENT_THEORY = SGP/SGP4

EPOCH          = 2026-01-27T19:07:58.149984
MEAN_MOTION    = 14.14591075
ECCENTRICITY   = .00026421
INCLINATION    = 71.0023
RA_OF_ASC_NODE = 318.3105
ARG_OF_PERICENTER = 112.6561
MEAN_ANOMALY   = 247.4841

EPHEMERIS_TYPE = 0
CLASSIFICATION_TYPE = U
NORAD_CAT_ID   = 28353
ELEMENT_SET_NO = 999
REV_AT_EPOCH   = 11705
BSTAR          = -.82680479E-4
MEAN_MOTION_DOT = -.206E-5
MEAN_MOTION_DDOT = 0

CCSDS_OMM_VERS = 2.0
CREATION_DATE  = 
ORIGINATOR     = 

OBJECT_NAME    = CZ-4B R/B
OBJECT_ID      = 2004-035C
CENTER_NAME    = EARTH
REF_FRAME      = TEME
TIME_SYSTEM    = UTC
MEAN_ELEMENT_THEORY = SGP/SGP4

EPOCH          = 2026-01-27T12:56:57.818112
MEAN_MOTION    = 15.28272790
ECCENTRICITY   = .0034283
INCLINATION    = 97.3567
RA_OF_ASC_NODE = 62.2878
ARG_OF_PERICENTER = 113.6152
MEAN_ANOMALY   = 246.8694

EPHEMERIS_TYPE = 0
CLASSIFICATION_TYPE = U
NORAD_CAT_ID   = 28415
ELEMENT_SET_NO = 999
REV_AT_EPOCH   = 17362
BSTAR          = .3856E-3
MEAN_MOTION_DOT = .10737E-3
MEAN_MOTION_DDOT = 0

CCSDS_OMM_VERS = 2.0
CREATION_DATE  = 
ORIGINATOR     = 

OBJECT_NAME    = CZ-2C R/B
OBJECT_ID      = 2004-046B
CENTER_NAME    = EARTH
REF_FRAME      = TEME
TIME_SYSTEM    = UTC
MEAN_ELEMENT_THEORY = SGP/SGP4

EPOCH          = 2026-01-27T09:30:02.318688
MEAN_MOTION    = 14.26975192
ECCENTRICITY   = .01382248
INCLINATION    = 98.1999
RA_OF_ASC_NODE = 304.9427
ARG_OF_PERICENTER = 277.1269
MEAN_ANOMALY   = 81.4214

EPHEMERIS_TYPE = 0
CLASSIFICATION_TYPE = U
NORAD_CAT_ID   = 28480
ELEMENT_SET_NO = 999
REV_AT_EPOCH   = 10261
BSTAR          = .14637925E-3
MEAN_MOTION_DOT = .351E-5
MEAN_MOTION_DDOT = 0

CCSDS_OMM_VERS = 2.0
CREATION_DATE  = 
ORIGINATOR     = 

OBJECT_NAME    = ARIANE 5 R/B
OBJECT_ID      = 2004-049H
CENTER_NAME    = EARTH
REF_FRAME      = TEME
TIME_SYSTEM    = UTC
MEAN_ELEMENT_THEORY = SGP/SGP4

EPOCH          = 2026-01-27T20:57:51.003936
MEAN_MOTION    = 14.85169169
ECCENTRICITY   = .00853034
INCLINATION    = 98.2561
RA_OF_ASC_NODE = 194.8222
ARG_OF_PERICENTER = 122.9420
MEAN_ANOMALY   = 238.0033

EPHEMERIS_TYPE = 0
CLASSIFICATION_TYPE = U
NORAD_CAT_ID   = 28499
ELEMENT_SET_NO = 999
REV_AT_EPOCH   = 13973
BSTAR          = .19821047E-3
MEAN_MOTION_DOT = .1748E-4
MEAN_MOTION_DDOT = 0

CCSDS_OMM_VERS = 2.0
CREATION_DATE  = 
ORIGINATOR     = 

OBJECT_NAME    = CZ-2D R/B
OBJECT_ID      = 2005-024B
CENTER_NAME    = EARTH
REF_FRAME      = TEME
TIME_SYSTEM    = UTC
MEAN_ELEMENT_THEORY = SGP/SGP4

EPOCH          = 2026-01-27T11:35:38.084352
MEAN_MOTION    = 15.56532901
ECCENTRICITY   = .00061245
INCLINATION    = 97.3629
RA_OF_ASC_NODE = 41.2338
ARG_OF_PERICENTER = 148.1068
MEAN_ANOMALY   = 212.0559

EPHEMERIS_TYPE = 0
CLASSIFICATION_TYPE = U
NORAD_CAT_ID   = 28738
ELEMENT_SET_NO = 999
REV_AT_EPOCH   = 13336
BSTAR          = .63824905E-3
MEAN_MOTION_DOT = .45385E-3
MEAN_MOTION_DDOT = 0

